{
  "norad_id": 62566,
  "name": "STARLINK-11525 [DTC]",
  "history": [
    {
      "epoch": "2026-03-28T20:51:09.766656Z",
      "apogee_km": 357.69772360265233,
      "perigee_km": 355.14263260927873,
      "latitude_deg": 4.640992704880709e-05,
      "longitude_deg": -114.32737131422249,
      "height_km": 356.5156807468371,
      "semi_major_axis_km": 6734.557178105965,
      "eccentricity": 0.0001897,
      "inclination_deg": 42.9991,
      "raan_deg": 24.7464,
      "arg_perigee_deg": 255.3614,
      "mean_anomaly_deg": 104.7044,
      "mean_motion_rev_day": 15.708662
    },
    {
      "epoch": "2026-03-30T04:53:57.791904Z",
      "apogee_km": 357.26452264609543,
      "perigee_km": 356.3710635432444,
      "latitude_deg": -1.0621698234996582e-05,
      "longitude_deg": 115.60795323998435,
      "height_km": 356.8441118778241,
      "semi_major_axis_km": 6734.95479309467,
      "eccentricity": 6.633e-05,
      "inclination_deg": 43.001,
      "raan_deg": 16.698,
      "arg_perigee_deg": 235.2642,
      "mean_anomaly_deg": 124.8163,
      "mean_motion_rev_day": 15.70727092
    },
    {
      "epoch": "2026-03-31T11:25:06.988512Z",
      "apogee_km": 359.61788246127253,
      "perigee_km": 353.47854342115625,
      "latitude_deg": 4.395244985096814e-06,
      "longitude_deg": 8.901571759079765,
      "height_km": 356.96375877413965,
      "semi_major_axis_km": 6734.685212941215,
      "eccentricity": 0.0004558,
      "inclination_deg": 43.0027,
      "raan_deg": 9.0333,
      "arg_perigee_deg": 257.9475,
      "mean_anomaly_deg": 102.0882,
      "mean_motion_rev_day": 15.70821404
    },
    {
      "epoch": "2026-04-01T01:09:10.640448Z",
      "apogee_km": 357.0184282084192,
      "perigee_km": 356.0938895315694,
      "latitude_deg": -1.979932928199004e-05,
      "longitude_deg": 158.86968073497366,
      "height_km": 356.4611389109358,
      "semi_major_axis_km": 6734.693158869994,
      "eccentricity": 6.864e-05,
      "inclination_deg": 42.9999,
      "raan_deg": 5.5807,
      "arg_perigee_deg": 253.2513,
      "mean_anomaly_deg": 106.8279,
      "mean_motion_rev_day": 15.70818624
    },
    {
      "epoch": "2026-04-02T10:43:28.219296Z",
      "apogee_km": 358.34476308296325,
      "perigee_km": 354.5347436305192,
      "latitude_deg": 5.010616160376048e-06,
      "longitude_deg": 5.48702892214839,
      "height_km": 356.3098492872257,
      "semi_major_axis_km": 6734.576753356741,
      "eccentricity": 0.00028287,
      "inclination_deg": 43.0027,
      "raan_deg": 357.15,
      "arg_perigee_deg": 267.1021,
      "mean_anomaly_deg": 92.9523,
      "mean_motion_rev_day": 15.70859351
    },
    {
      "epoch": "2026-04-03T17:14:41.072352Z",
      "apogee_km": 357.4741651080476,
      "perigee_km": 356.15411468462753,
      "latitude_deg": -1.7793399380641457e-05,
      "longitude_deg": -101.23397105518666,
      "height_km": 356.5846515476665,
      "semi_major_axis_km": 6734.951139896338,
      "eccentricity": 9.8e-05,
      "inclination_deg": 43.0007,
      "raan_deg": 349.486,
      "arg_perigee_deg": 270.1447,
      "mean_anomaly_deg": 89.9308,
      "mean_motion_rev_day": 15.7072837
    },
    {
      "epoch": "2026-04-04T17:39:37.168704Z",
      "apogee_km": 357.7895572122861,
      "perigee_km": 355.02300683203157,
      "latitude_deg": -3.3954725236229144e-05,
      "longitude_deg": -114.60263614554609,
      "height_km": 356.03462341253044,
      "semi_major_axis_km": 6734.543282022159,
      "eccentricity": 0.0002054,
      "inclination_deg": 43.0002,
      "raan_deg": 343.3538,
      "arg_perigee_deg": 276.0027,
      "mean_anomaly_deg": 84.0606,
      "mean_motion_rev_day": 15.70871062
    },
    {
      "epoch": "2026-04-05T08:55:14.444544Z",
      "apogee_km": 357.956347530313,
      "perigee_km": 355.4499094280982,
      "latitude_deg": 1.8774745817269973e-05,
      "longitude_deg": 12.031782678401182,
      "height_km": 356.61644717465543,
      "semi_major_axis_km": 6734.840128479205,
      "eccentricity": 0.00018608,
      "inclination_deg": 43.0017,
      "raan_deg": 339.5202,
      "arg_perigee_deg": 263.5706,
      "mean_anomaly_deg": 96.495,
      "mean_motion_rev_day": 15.70767206
    },
    {
      "epoch": "2026-04-06T00:10:50.382912Z",
      "apogee_km": 357.34375651409573,
      "perigee_km": 355.55424232233145,
      "latitude_deg": 1.282952852192523e-05,
      "longitude_deg": 138.6741267690767,
      "height_km": 356.3453589221321,
      "semi_major_axis_km": 6734.585999418214,
      "eccentricity": 0.00013286,
      "inclination_deg": 42.9978,
      "raan_deg": 335.689,
      "arg_perigee_deg": 262.0176,
      "mean_anomaly_deg": 98.0541,
      "mean_motion_rev_day": 15.70856116
    },
    {
      "epoch": "2026-04-07T08:13:35.080896Z",
      "apogee_km": 358.0022610508013,
      "perigee_km": 354.8984244362782,
      "latitude_deg": 3.0525410176226383e-06,
      "longitude_deg": 8.623399109811784,
      "height_km": 356.3099942162487,
      "semi_major_axis_km": 6734.58734274354,
      "eccentricity": 0.00023044,
      "inclination_deg": 42.9999,
      "raan_deg": 327.6406,
      "arg_perigee_deg": 266.8035,
      "mean_anomaly_deg": 93.2569,
      "mean_motion_rev_day": 15.70855646
    },
    {
      "epoch": "2026-04-07T15:51:22.942080Z",
      "apogee_km": 357.64658841755136,
      "perigee_km": 355.3325707248114,
      "latitude_deg": 4.42941797890569e-06,
      "longitude_deg": -108.05637333575613,
      "height_km": 356.20359656547237,
      "semi_major_axis_km": 6734.6265795711815,
      "eccentricity": 0.0001718,
      "inclination_deg": 42.9984,
      "raan_deg": 325.7236,
      "arg_perigee_deg": 272.8988,
      "mean_anomaly_deg": 87.1683,
      "mean_motion_rev_day": 15.70841918
    },
    {
      "epoch": "2026-04-08T01:00:44.726976Z",
      "apogee_km": 357.7531827745788,
      "perigee_km": 355.43953247690024,
      "latitude_deg": 1.7096493059178206e-05,
      "longitude_deg": 111.92714297822988,
      "height_km": 356.7135763611528,
      "semi_major_axis_km": 6734.73335762574,
      "eccentricity": 0.00017177,
      "inclination_deg": 43.0003,
      "raan_deg": 323.4239,
      "arg_perigee_deg": 252.6699,
      "mean_anomaly_deg": 107.3981,
      "mean_motion_rev_day": 15.7080456
    },
    {
      "epoch": "2026-04-09T21:15:58.596768Z",
      "apogee_km": 358.0453345224969,
      "perigee_km": 355.1588253528371,
      "latitude_deg": 1.1479830271750028e-05,
      "longitude_deg": 155.18879950266975,
      "height_km": 356.08886151515196,
      "semi_major_axis_km": 6734.739079937667,
      "eccentricity": 0.0002143,
      "inclination_deg": 43.0002,
      "raan_deg": 312.3108,
      "arg_perigee_deg": 281.441,
      "mean_anomaly_deg": 78.6217,
      "mean_motion_rev_day": 15.70802558
    },
    {
      "epoch": "2026-04-09T21:15:58.597632Z",
      "apogee_km": 358.0451324803262,
      "perigee_km": 355.1590273950096,
      "latitude_deg": 9.16719288902021e-06,
      "longitude_deg": 155.1887934267615,
      "height_km": 356.08890158595614,
      "semi_major_axis_km": 6734.739079937667,
      "eccentricity": 0.00021427,
      "inclination_deg": 43.0002,
      "raan_deg": 312.3108,
      "arg_perigee_deg": 281.441,
      "mean_anomaly_deg": 78.6217,
      "mean_motion_rev_day": 15.70802558
    },
    {
      "epoch": "2026-04-11T14:28:04.930176Z",
      "apogee_km": 358.0366870384478,
      "perigee_km": 354.8081392557842,
      "latitude_deg": 4.7280828057926774e-05,
      "longitude_deg": -114.87845130391511,
      "height_km": 356.51192792092775,
      "semi_major_axis_km": 6734.559413147115,
      "eccentricity": 0.0002397,
      "inclination_deg": 43.0001,
      "raan_deg": 301.962,
      "arg_perigee_deg": 258.6975,
      "mean_anomaly_deg": 101.3624,
      "mean_motion_rev_day": 15.70865418
    }
  ]
}